[{"OBJECT_NAME":"STARLINK-5453","OBJECT_ID":"2022-175R","EPOCH":"2026-03-09T07:28:13.979424","MEAN_MOTION":15.08813529,"ECCENTRICITY":0.00011684,"INCLINATION":53.2184,"RA_OF_ASC_NODE":45.6945,"ARG_OF_PERICENTER":86.0946,"MEAN_ANOMALY":274.0179,"EPHEMERIS_TYPE":0,"CLASSIFICATION_TYPE":"U","NORAD_CAT_ID":54773,"ELEMENT_SET_NO":999,"REV_AT_EPOCH":17986,"BSTAR":3.1872172e-5,"MEAN_MOTION_DOT":2.19e-6,"MEAN_MOTION_DDOT":0},{"OBJECT_NAME":"OBJECT L","OBJECT_ID":"2024-205L","EPOCH":"2026-03-07T03:22:40.585728","MEAN_MOTION":15.10822925,"ECCENTRICITY":0.00547724,"INCLINATION":97.4213,"RA_OF_ASC_NODE":140.2188,"ARG_OF_PERICENTER":346.2042,"MEAN_ANOMALY":13.7688,"EPHEMERIS_TYPE":0,"CLASSIFICATION_TYPE":"U","NORAD_CAT_ID":61904,"ELEMENT_SET_NO":999,"REV_AT_EPOCH":7282,"BSTAR":0.00079283043,"MEAN_MOTION_DOT":0.00013606,"MEAN_MOTION_DDOT":0}]
