STARLINK-5453           
1 54773U 22175R   26068.31127291  .00000219  00000+0  31872-4 0  9997
2 54773  53.2184  45.6945 0001168  86.0946 274.0179 15.08813529179866
2024-205L               
1 61904U 24205L   26066.14074752  .00013606  00000+0  79283-3 0  9990
2 61904  97.4213 140.2188 0054772 346.2042  13.7688 15.10822925 72825
